NORAD_CAT_ID,OBJECT_NAME,OBJECT_TYPE,EPOCH,MEAN_MOTION,ECCENTRICITY,INCLINATION,RA_OF_ASC_NODE,ARG_OF_PERICENTER,MEAN_ANOMALY,BSTAR,MEAN_MOTION_DOT,MEAN_MOTION_DDOT,TLE_LINE0,TLE_LINE1,TLE_LINE2,SEMIMAJOR_AXIS,PERIOD,APOGEE,PERIGEE,DECAYED
53988.0,STARLINK-5113,PAYLOAD,2024-08-01 00:18:50,15.08837833,0.0002006,53.2177,323.4421,88.5638,271.5584,2.8191e-06,-2.43e-06,0.0,0 STARLINK-5113,1 53988U 22125AA  24214.01308626 -.00000243  00000-0  28191-5 0  9990,2 53988  53.2177 323.4421 0002006  88.5638 271.5584 15.08837833101117,6917.887,95.438,541.14,538.364,0.0
53988.0,STARLINK-5113,PAYLOAD,2024-08-01 11:26:32,15.08842748,0.0001454,53.2171,321.3583,74.5809,285.5343,4.5239e-05,4.32e-06,0.0,0 STARLINK-5113,1 53988U 22125AA  24214.47676258  .00000432  00000-0  45239-4 0  9999,2 53988  53.2171 321.3583 0001454  74.5809 285.5343 15.08842748101106,6917.872,95.437,540.743,538.731,0.0
53988.0,STARLINK-5113,PAYLOAD,2024-08-01 17:48:03,15.08865675,0.0001085,53.2171,320.1762,78.2452,281.8662,0.00035899,5.434e-05,0.0,0 STARLINK-5113,1 53988U 22125AA  24214.74170918  .00005434  00000-0  35899-3 0  9998,2 53988  53.2171 320.1762 0001085  78.2452 281.8662 15.08865675101227,6917.802,95.436,540.417,538.916,0.0
53988.0,STARLINK-5113,PAYLOAD,2024-08-02 12:52:42,15.0883389,0.0001324,53.217,316.6037,79.1593,280.9548,-0.00019212,-3.344e-05,0.0,0 STARLINK-5113,1 53988U 22125AA  24215.53660841 -.00003344  00000-0 -19212-3 0  9996,2 53988  53.2170 316.6037 0001324  79.1593 280.9548 15.08833890101343,6917.899,95.438,540.68,538.848,0.0
53988.0,STARLINK-5113,PAYLOAD,2024-08-02 14:28:05,15.08841146,0.0001323,53.2173,316.3043,82.2121,277.9022,-0.00011073,-2.05e-05,0.0,0 STARLINK-5113,1 53988U 22125AA  24215.60284560 -.00002050  00000-0 -11073-3 0  9994,2 53988  53.2173 316.3043 0001323  82.2121 277.9022 15.08841146101279,6917.877,95.437,540.657,538.827,0.0
53988.0,STARLINK-5113,PAYLOAD,2024-08-02 16:03:28,15.08838123,0.0001335,53.2174,316.0017,108.7308,251.3829,-6.7986e-05,-1.37e-05,0.0,0 STARLINK-5113,1 53988U 22125AA  24215.66908425 -.00001370  00000-0 -67986-4 0  9992,2 53988  53.2174 316.0017 0001335 108.7308 251.3829 15.08838123101285,6917.886,95.438,540.675,538.828,0.0
53988.0,STARLINK-5113,PAYLOAD,2024-08-03 00:00:24,15.08843855,0.0001218,53.218,314.5161,98.9186,261.1944,-0.0002016,-3.495e-05,0.0,0 STARLINK-5113,1 53988U 22125AA  24216.00028217 -.00003495  00000-0 -20160-3 0  9995,2 53988  53.2180 314.5161 0001218  98.9186 261.1944 15.08843855101419,6917.869,95.437,540.576,538.891,0.0
53988.0,STARLINK-5113,PAYLOAD,2024-08-03 12:43:30,15.08833246,0.0001283,53.2169,312.1396,107.3305,252.7827,-0.00010719,-1.993e-05,0.0,0 STARLINK-5113,1 53988U 22125AA  24216.53020909 -.00001993  00000-0 -10719-3 0  9993,2 53988  53.2169 312.1396 0001283 107.3305 252.7827 15.08833246101497,6917.901,95.438,540.654,538.878,0.0
53988.0,STARLINK-5113,PAYLOAD,2024-08-04 12:34:17,15.08837941,0.0001401,53.2172,307.6817,96.1289,263.9862,7.0162e-05,8.29e-06,0.0,0 STARLINK-5113,1 53988U 22125AA  24217.52381511  .00000829  00000-0  70162-4 0  9996,2 53988  53.2172 307.6817 0001401  96.1289 263.9862 15.08837941101563,6917.887,95.438,540.721,538.782,0.0
53988.0,STARLINK-5113,PAYLOAD,2024-08-04 23:41:59,15.08848539,0.0001467,53.2179,305.5997,104.5079,255.6076,0.00027684,4.122e-05,0.0,0 STARLINK-5113,1 53988U 22125AA  24217.98749081  .00004122  00000-0  27684-3 0  9996,2 53988  53.2179 305.5997 0001467 104.5079 255.6076 15.08848539101716,6917.854,95.437,540.734,538.704,0.0
53988.0,STARLINK-5113,PAYLOAD,2024-08-05 12:25:03,15.08870145,0.0001396,53.217,303.221,101.7723,258.3425,0.00074252,0.00011559,0.0,0 STARLINK-5113,1 53988U 22125AA  24218.51740171  .00011559  00000-0  74252-3 0  9992,2 53988  53.2170 303.2210 0001396 101.7723 258.3425 15.08870145101790,6917.788,95.436,540.619,538.688,0.0
53988.0,STARLINK-5113,PAYLOAD,2024-08-06 12:15:51,15.08826356,0.0001288,53.2167,298.7623,98.1887,261.9251,-0.00018958,-3.303e-05,0.0,0 STARLINK-5113,1 53988U 22125AA  24219.51101126 -.00003303  00000-0 -18958-3 0  9995,2 53988  53.2167 298.7623 0001288  98.1887 261.9251 15.08826356101941,6917.922,95.438,540.678,538.896,0.0
53988.0,STARLINK-5113,PAYLOAD,2024-08-07 10:31:15,15.08856923,0.0001305,53.2164,294.6009,98.9333,261.1807,0.0014586,0.00023013,0.0,0 STARLINK-5113,1 53988U 22125AA  24220.43837681  .00023013  00000-0  14586-2 0  9990,2 53988  53.2164 294.6009 0001305  98.9333 261.1807 15.08856923102083,6917.829,95.436,540.596,538.791,0.0
53988.0,STARLINK-5113,PAYLOAD,2024-08-08 10:22:02,15.08862038,0.0001476,53.2159,290.1405,70.5056,289.6095,0.001214,0.00019097,0.0,0 STARLINK-5113,1 53988U 22125AA  24221.43197409  .00019097  00000-0  12140-2 0  9999,2 53988  53.2159 290.1405 0001476  70.5056 289.6095 15.08862038102151,6917.813,95.436,540.699,538.657,0.0
53988.0,STARLINK-5113,PAYLOAD,2024-08-08 21:29:44,15.0885505,0.0001824,53.2157,288.0576,91.1877,268.9324,0.00089177,0.00013939,0.0,0 STARLINK-5113,1 53988U 22125AA  24221.89565151  .00013939  00000-0  89177-3 0  9996,2 53988  53.2157 288.0576 0001824  91.1877 268.9324 15.08855050102220,6917.834,95.437,540.961,538.438,0.0
53988.0,STARLINK-5113,PAYLOAD,2024-08-09 11:48:12,15.08848448,0.0001818,53.217,285.3823,98.0623,262.0575,0.00021195,3.087e-05,0.0,0 STARLINK-5113,1 53988U 22125AA  24222.49181075  .00003087  00000-0  21195-3 0  9991,2 53988  53.2170 285.3823 0001818  98.0623 262.0575 15.08848448102392,6917.855,95.437,540.977,538.462,0.0
53988.0,STARLINK-5113,PAYLOAD,2024-08-09 13:23:35,15.08853455,0.0001925,53.2175,285.0841,98.0354,262.0856,0.00035632,5.389e-05,0.0,0 STARLINK-5113,1 53988U 22125AA  24222.55804938  .00005389  00000-0  35632-3 0  9996,2 53988  53.2175 285.0841 0001925  98.0354 262.0856 15.08853455102323,6917.839,95.437,541.036,538.373,0.0
53988.0,STARLINK-5113,PAYLOAD,2024-08-10 03:42:04,15.08838427,0.0001945,53.2156,282.4096,89.5803,270.5412,5.975e-05,6.63e-06,0.0,0 STARLINK-5113,1 53988U 22125AA  24223.15421483  .00000663  00000-0  59750-4 0  9991,2 53988  53.2156 282.4096 0001945  89.5803 270.5412 15.08838427102493,6917.885,95.438,541.096,538.405,0.0
53988.0,STARLINK-5113,PAYLOAD,2024-08-10 13:14:22,15.08845305,0.0001671,53.2164,280.6221,84.1853,275.9329,0.00013194,1.813e-05,0.0,0 STARLINK-5113,1 53988U 22125AA  24223.55165451  .00001813  00000-0  13194-3 0  9994,2 53988  53.2164 280.6221 0001671  84.1853 275.9329 15.08845305102471,6917.864,95.437,540.885,538.573,0.0
53988.0,STARLINK-5113,PAYLOAD,2024-08-11 09:54:24,15.08834005,0.000169,53.2161,276.7583,97.4225,262.6959,0.00011805,1.591e-05,0.0,0 STARLINK-5113,1 53988U 22125AA  24224.41278394  .00001591  00000-0  11805-3 0  9991,2 53988  53.2161 276.7583 0001690  97.4225 262.6959 15.08834005102686,6917.899,95.438,540.933,538.595,0.0
53988.0,STARLINK-5113,PAYLOAD,2024-08-11 21:02:06,15.0885254,0.0001767,53.2168,274.6753,96.9636,263.1557,0.00047013,7.205e-05,0.0,0 STARLINK-5113,1 53988U 22125AA  24224.87645854  .00007205  00000-0  47013-3 0  9998,2 53988  53.2168 274.6753 0001767  96.9636 263.1557 15.08852540102677,6917.842,95.437,540.929,538.485,0.0
53988.0,STARLINK-5113,PAYLOAD,2024-08-12 03:23:38,15.08866052,0.000158,53.2157,273.4849,93.0071,267.1102,0.00082661,0.00012901,0.0,0 STARLINK-5113,1 53988U 22125AA  24225.14141481  .00012901  00000-0  82661-3 0  9993,2 53988  53.2157 273.4849 0001580  93.0071 267.1102 15.08866052102798,6917.801,95.436,540.759,538.573,0.0
53988.0,STARLINK-5113,PAYLOAD,2024-08-12 11:20:32,15.08913797,0.0001684,53.2157,271.9989,93.8762,266.2423,0.0028809,0.00045954,0.0,0 STARLINK-5113,1 53988U 22125AA  24225.47260310  .00045954  00000-0  28809-2 0  9999,2 53988  53.2157 271.9989 0001684  93.8762 266.2423 15.08913797102847,6917.655,95.433,540.685,538.355,0.0
53988.0,STARLINK-5113,PAYLOAD,2024-08-13 11:11:20,15.08782734,0.0001451,53.216,267.5387,79.1418,280.9737,-0.00054087,-8.872e-05,0.0,0 STARLINK-5113,1 53988U 22125AA  24226.46620609 -.00008872  00000-0 -54087-3 0  9998,2 53988  53.2160 267.5387 0001451  79.1418 280.9737 15.08782734102993,6918.055,95.441,540.924,538.917,0.0
53988.0,STARLINK-5113,PAYLOAD,2024-08-14 03:05:14,15.08802065,0.0001377,53.2166,264.5649,61.7811,298.332,0.0011578,0.00018167,0.0,0 STARLINK-5113,1 53988U 22125AA  24227.12863551  .00018167  00000-0  11578-2 0  9990,2 53988  53.2166 264.5649 0001377  61.7811 298.3320 15.08802065103091,6917.996,95.44,540.814,538.909,0.0
53988.0,STARLINK-5113,PAYLOAD,2024-08-14 09:26:47,15.08813301,0.0001503,53.2157,263.3755,72.4978,287.6178,0.0017223,0.00027209,0.0,0 STARLINK-5113,1 53988U 22125AA  24227.39360199  .00027209  00000-0  17223-2 0  9999,2 53988  53.2157 263.3755 0001503  72.4978 287.6178 15.08813301103053,6917.962,95.439,540.867,538.787,0.0
53988.0,STARLINK-5113,PAYLOAD,2024-08-14 18:59:06,15.08830313,0.0001588,53.2162,261.5905,66.0495,294.0664,0.0014317,0.00022565,0.0,0 STARLINK-5113,1 53988U 22125AA  24227.79104669  .00022565  00000-0  14317-2 0  9992,2 53988  53.2162 261.5905 0001588  66.0495 294.0664 15.08830313103113,6917.91,95.438,540.874,538.676,0.0
53988.0,STARLINK-5113,PAYLOAD,2024-08-15 09:17:34,15.08861675,0.000162,53.2154,258.9148,65.9183,294.1978,0.0013743,0.00021665,0.0,0 STARLINK-5113,1 53988U 22125AA  24228.38720248  .00021665  00000-0  13743-2 0  9997,2 53988  53.2154 258.9148 0001620  65.9183 294.1978 15.08861675103206,6917.814,95.436,540.8,538.558,0.0
53988.0,STARLINK-5113,PAYLOAD,2024-08-15 18:49:52,15.08865426,0.0001595,53.2144,257.1314,62.085,298.0303,0.00080073,0.00012487,0.0,0 STARLINK-5113,1 53988U 22125AA  24228.78463746  .00012487  00000-0  80073-3 0  9991,2 53988  53.2144 257.1314 0001595  62.0850 298.0303 15.08865426103349,6917.803,95.436,540.771,538.564,0.0
53988.0,STARLINK-5113,PAYLOAD,2024-08-16 09:08:19,15.08879003,0.0001583,53.2146,254.4547,70.4816,289.6346,0.00092443,0.00014471,0.0,0 STARLINK-5113,1 53988U 22125AA  24229.38078614  .00014471  00000-0  92443-3 0  9993,2 53988  53.2146 254.4547 0001583  70.4816 289.6346 15.08879003103351,6917.761,95.435,540.721,538.531,0.0
